IRIDIUM 135             
1 43070U 17083A   26196.40781472  .00000080  00000+0  21433-4 0  9994
2 43070  86.3986 310.2189 0002204  94.0705 266.0743 14.34218156448192
IRIDIUM 138             
1 43071U 17083B   26196.36341514  .00000134  00000+0  40836-4 0  9997
2 43071  86.3999 309.9372 0002058  92.0704 268.0728 14.34218678448172
IRIDIUM 116             
1 43072U 17083C   26196.40147080  .00000131  00000+0  39574-4 0  9999
2 43072  86.3986 310.2072 0002454  98.3954 261.7520 14.34217852448215
IRIDIUM 130             
1 43073U 17083D   26196.36976165  .00000134  00000+0  40800-4 0  9996
2 43073  86.3993 310.4984 0002266 100.6500 259.4951 14.34217993448154
IRIDIUM 151             
1 43074U 17083E   26196.41415758  .00000131  00000+0  39658-4 0  9995
2 43074  86.3986 310.2603 0002255  95.2630 264.8823 14.34218195448180
IRIDIUM 134             
1 43075U 17083F   26196.38244441  .00000078  00000+0  20758-4 0  9992
2 43075  86.3988 310.2820 0002227  95.1739 264.9711 14.34218071448148
IRIDIUM 137             
1 43076U 17083G   26196.39513061  .00000086  00000+0  23816-4 0  9998
2 43076  86.3991 310.3701 0002721  93.9421 266.2086 14.34218176448219
IRIDIUM 141             
1 43077U 17083H   26196.38878649  .00000082  00000+0  22369-4 0  9992
2 43077  86.3985 310.2017 0002174  93.2231 266.9213 14.34217768448211
IRIDIUM 153             
1 43078U 17083J   26196.27119678  .00000070  00000+0  17923-4 0  9998
2 43078  86.3959 278.7300 0002116  94.5036 265.6402 14.34217888449309
IRIDIUM 131             
1 43079U 17083K   26196.37610162  .00000096  00000+0  27253-4 0  9999
2 43079  86.3990 310.3948 0002226  93.6885 266.4565 14.34218332448145
IRIDIUM 144             
1 43249U 18030A   26196.27753968  .00000067  00000+0  16888-4 0  9992
2 43249  86.3957 278.6559 0002380  96.8926 263.2540 14.34217949434161
IRIDIUM 149             
1 43250U 18030B   26196.28388245  .00000097  00000+0  27739-4 0  9997
2 43250  86.3956 278.6198 0002262  93.1524 266.9931 14.34218061434186
IRIDIUM 157             
1 43251U 18030C   26196.23314401  .00000141  00000+0  43165-4 0  9997
2 43251  86.3960 278.6951 0002253  94.2199 265.9254 14.34218060434152
IRIDIUM 140             
1 43252U 18030D   26196.32194046  .00000147  00000+0  45313-4 0  9992
2 43252  86.3958 278.6705 0002237  95.7912 264.3539 14.34217690434223
IRIDIUM 145             
1 43253U 18030E   26196.30925224  .00000115  00000+0  33887-4 0  9999
2 43253  86.3957 278.6477 0002543 100.4482 259.7000 14.34217461434154
IRIDIUM 146             
1 43254U 18030F   26196.29022488  .00000067  00000+0  16691-4 0  9998
2 43254  86.3959 278.6680 0002375  96.3853 263.7614 14.34217577434166
IRIDIUM 148             
1 43255U 18030G   26196.32828354  .00000142  00000+0  43746-4 0  9994
2 43255  86.3960 278.6955 0002338  93.4578 266.6885 14.34218054434203
IRIDIUM 142             
1 43256U 18030H   26196.29656796  .00000082  00000+0  22338-4 0  9997
2 43256  86.3954 278.5967 0002442  96.9368 263.2106 14.34217986434167
IRIDIUM 150             
1 43257U 18030J   26196.19508457 -.00000181  00000+0 -71753-4 0  9994
2 43257  86.3956 278.7566 0002169  95.4767 264.6676 14.34216004434178
IRIDIUM 143             
1 43258U 18030K   26196.31559648  .00000074  00000+0  19186-4 0  9998
2 43258  86.3962 278.7996 0002331  97.3921 262.7540 14.34217506434129
IRIDIUM 161             
1 43478U 18047C   26196.17864655  .00000156  00000+0  40362-4 0  9992
2 43478  86.4462  76.7652 0002265  80.7989 279.3468 14.43275694429174
IRIDIUM 152             
1 43479U 18047D   26196.14877740  .00000142  00000+0  43749-4 0  9996
2 43479  86.3936  76.6390 0002164  83.7321 276.4121 14.34218388426492
IRIDIUM 147             
1 43480U 18047E   26196.15511858  .00000085  00000+0  23244-4 0  9998
2 43480  86.3939  76.6420 0002262  88.4126 271.7329 14.34217314426491
IRIDIUM 110             
1 43481U 18047F   26196.16146069  .00000156  00000+0  48526-4 0  9997
2 43481  86.3941  76.7320 0002117  77.5222 282.6210 14.34218629426489
IRIDIUM 162             
1 43482U 18047G   26196.17235166  .00000194  00000+0  51639-4 0  9997
2 43482  86.4460  76.6584 0002200  86.9927 273.1526 14.43278508429162
IRIDIUM 160             
1 43569U 18061A   26196.52590767  .00000124  00000+0  37229-4 0  9991
2 43569  86.3939  44.9434 0002237  86.9733 273.1719 14.34217119417437
IRIDIUM 166             
1 43570U 18061B   26196.55127894  .00000081  00000+0  21683-4 0  9992
2 43570  86.3938  44.8830 0002281  89.7669 270.3788 14.34217835417468
IRIDIUM 158             
1 43571U 18061C   26196.51956540  .00000076  00000+0  20199-4 0  9992
2 43571  86.3939  44.9059 0002085  87.7247 272.4188 14.34217880417429
IRIDIUM 165             
1 43572U 18061D   26196.54493704  .00000027  00000+0  25683-5 0  9994
2 43572  86.3939  44.9420 0002284  91.0558 269.0900 14.34217053417455
IRIDIUM 155             
1 43573U 18061E   26196.50688010  .00000094  00000+0  26605-4 0  9995
2 43573  86.3936  44.8262 0002100  89.9376 270.2060 14.34217784417415
